LEMUR-2-ROUNDTRIPPER    
1 62711U 25009DG  26196.70164823  .00004926  00000+0  35864-3 0  9997
2 62711  97.7252 279.3461 0004470  62.8340 297.3341 15.04237807 81916
LEMUR-2-MYNAMEISJEFF    
1 62712U 25009DH  26196.23449186  .00004580  00000+0  33391-3 0  9993
2 62712  97.7302 279.2772 0004062  97.3054 262.8634 15.04223423 81842
LEMUR-2-LEIA-PHILIP     
1 63246U 25052AN  26196.27028868  .00000141  00000+0  17093-4 0  9999
2 63246  97.6805  87.7451 0005095 119.1718 241.0014 14.97391480 72879
LEMUR-2-LIA-MARTIN      
1 63248U 25052AQ  26196.26481194  .00002027  00000+0  17643-3 0  9990
2 63248  97.6869  88.2585 0005299  89.7289 270.4540 14.98030415 72886
LEMUR-2-DELOITTE-1      
1 63259U 25052BB  26196.57931293  .00002441  00000+0  21287-3 0  9995
2 63259  97.6881  88.8983 0002572  64.8549 295.2940 14.97784138 72947
LEMUR-2-EMERSONROSE     
1 63261U 25052BD  26196.52636810  .00002736  00000+0  22890-3 0  9998
2 63261  97.6885  89.4601 0002709  60.0626 300.0865 14.99293057 72986
LEMUR-2-MARACHE-FRAN    
1 63262U 25052BE  26196.21538038  .00001678  00000+0  13855-3 0  9993
2 63262  97.6837  89.5210 0005176 252.2220 107.8439 15.00315354 72963
LEMUR-2-THEFALCONER     
1 63264U 25052BG  26196.27574090  .00001069  00000+0  96508-4 0  9990
2 63264  97.6830  88.1900 0000294 296.3949  63.7243 14.97563100 72896
LEMUR-2-UNTITLED-SC     
1 63351U 25061A   26196.84699603  .00001461  00000+0  84642-4 0  9990
2 63351  97.5654 172.0058 0019298 160.8571 199.3390 15.13648466 71923
LEMUR-2-ESPERANZA       
1 63352U 25061B   26196.82228637  .00001764  00000+0  10114-3 0  9992
2 63352  97.5664 172.0815 0018870 160.2118 199.9850 15.13754802 71921
LEMUR-2-KREMPEL-BRO2    
1 63353U 25061C   26196.84108086  .00001626  00000+0  92378-4 0  9990
2 63353  97.5706 172.6700 0020052 153.1145 207.1130 15.14181033 71940
LEMUR-2-THERMORAPTOR    
1 63354U 25061D   26196.68944324  .00002125  00000+0  11939-3 0  9994
2 63354  97.5712 172.6004 0019773 152.4587 207.7696 15.14263696 71922
LEMUR-2-NEUROSPICY      
1 63355U 25061E   26196.79106780  .00001734  00000+0  97833-4 0  9996
2 63355  97.5639 172.3056 0017567 154.9997 205.2089 15.14383040 71943
LEMUR-2-TILLINFINITY    
1 63356U 25061F   26196.81531138  .00002190  00000+0  12053-3 0  9996
2 63356  97.5625 172.6403 0019131 143.8271 216.4259 15.14967056 71970
LEMUR-2-KREMPEL-BRO1    
1 63357U 25061G   26196.79243918  .00001772  00000+0  98754-4 0  9998
2 63357  97.5626 172.5255 0019743 145.3068 214.9456 15.14774193 71965
LEMUR-2-LANGER2SPACE    
1 63358U 25061H   26196.89075938  .00002014  00000+0  11277-3 0  9999
2 63358  97.5633 172.4259 0017462 152.9152 207.2994 15.14467754 71965
LEMUR-2-BALTO           
1 63395U 25052BH  26196.53320222  .00002634  00000+0  21449-3 0  9990
2 63395  97.6928  89.8234 0005107 326.1448  33.9449 15.00366255 73010
LEMUR-2-KRISH           
1 64561U 25135AK  26196.82904968  .00001773  00000+0  16140-3 0  9990
2 64561  97.7774 311.5152 0001280  96.4865 263.6502 14.96451015 58207
LEMUR-2-HUBBLE-4        
1 64565U 25135AP  26196.81108410  .00000802  00000+0  81173-4 0  9992
2 64565  97.7720 310.3858 0002718 160.4737 199.6587 14.93687040 58149
LEMUR-2-SEJONG-2        
1 64586U 25135BL  26196.84988954  .00002107  00000+0  18863-3 0  9992
2 64586  97.7708 311.6812 0004004 215.6943 144.4012 14.96914587 58237
LEMUR-2-HUBBLE-5        
1 64840U 25135BT  26196.55183665  .00000663  00000+0  67186-4 0  9997
2 64840  97.7741 310.7988 0004336 233.7942 126.2877 14.94214435 58149
LEMUR-2-KARENDARRELL    
1 64841U 25135BU  26196.79663075  .00004305  00000+0  34587-3 0  9997
2 64841  97.7719 312.9676 0012499 102.9205 257.3415 15.00505264 58304
LEMUR-2-LUCILLE-ROSE    
1 65403U 25135BV  26196.77008778  .00003540  00000+0  28528-3 0  9991
2 65403  97.7711 312.9763 0014976 187.3030 172.7977 15.00493199 52921
LEMUR-2-AFFIE-WAUWIE    
1 66295U 25248C   26196.36935946  .00012792  00000+0  46577-3 0  9990
2 66295  45.3887 322.1687 0008766 251.4181 108.5756 15.28256430 38901
OTTER SDM               
1 66678U 25276N   26196.16317339  .00003557  00000+0  16803-3 0  9992
2 66678  97.4206 269.1787 0004295 254.0411 106.0351 15.20056680 34668
LEMUR-2-STAS-GORBUK     
1 66686U 25276W   26196.18459675  .00002841  00000+0  13639-3 0  9992
2 66686  97.4240 269.2517 0003613 248.2139 111.8711 15.19658337 34661
LEMUR-2-TEODOR          
1 66768U 25276DG  26196.72957458  .00003124  00000+0  14257-3 0  9997
2 66768  97.4144 270.0602 0002204  87.3705 272.7783 15.21341179 34781
LEMUR-2-LAILA           
1 66776U 25276DQ  26196.17318585  .00003014  00000+0  13678-3 0  9991
2 66776  97.4169 269.6508 0002924  94.5398 265.6172 15.21563113 34702
LEMUR-2-CELIJO-SB-PK    
1 66781U 25276DW  26196.18488121  .00002627  00000+0  21423-3 0  9998
2 66781  97.5197 266.0383 0007030  64.1114 296.0834 15.00282855 26829
LEMUR-2-FINNIAN         
1 66782U 25276DX  26196.15516365  .00001567  00000+0  12854-3 0  9998
2 66782  97.5350 266.2766 0007355   0.2021 359.9204 15.00617476 24195
