OBJECT_NAME,OBJECT_ID,EPOCH,MEAN_MOTION,ECCENTRICITY,INCLINATION,RA_OF_ASC_NODE,ARG_OF_PERICENTER,MEAN_ANOMALY,EPHEMERIS_TYPE,CLASSIFICATION_TYPE,NORAD_CAT_ID,ELEMENT_SET_NO,REV_AT_EPOCH,BSTAR,MEAN_MOTION_DOT,MEAN_MOTION_DDOT
LEMUR-2-ROUNDTRIPPER,2025-009DG,2026-07-15T16:50:22.407072,15.04237807,.000447,97.7252,279.3461,62.8340,297.3341,0,U,62711,999,8191,.35864E-3,.4926E-4,0
LEMUR-2-MYNAMEISJEFF,2025-009DH,2026-07-15T05:37:40.096704,15.04223423,.00040629,97.7302,279.2772,97.3054,262.8634,0,U,62712,999,8184,.33391474E-3,.458E-4,0
LEMUR-2-LEIA-PHILIP,2025-052AN,2026-07-15T06:29:12.941952,14.97391480,.00050958,97.6805,87.7451,119.1718,241.0014,0,U,63246,999,7287,.17093362E-4,.141E-5,0
LEMUR-2-LIA-MARTIN,2025-052AQ,2026-07-15T06:21:19.751616,14.98030415,.00052999,97.6869,88.2585,89.7289,270.4540,0,U,63248,999,7288,.1764308E-3,.2027E-4,0
LEMUR-2-DELOITTE-1,2025-052BB,2026-07-15T13:54:12.637152,14.97784138,.0002572,97.6881,88.8983,64.8549,295.2940,0,U,63259,999,7294,.21287E-3,.2441E-4,0
LEMUR-2-EMERSONROSE,2025-052BD,2026-07-15T12:37:58.203840,14.99293057,.00027092,97.6885,89.4601,60.0626,300.0865,0,U,63261,999,7298,.22890076E-3,.2736E-4,0
LEMUR-2-MARACHE-FRAN,2025-052BE,2026-07-15T05:10:08.864832,15.00315354,.00051768,97.6837,89.5210,252.2220,107.8439,0,U,63262,999,7296,.13855465E-3,.1678E-4,0
LEMUR-2-THEFALCONER,2025-052BG,2026-07-15T06:37:04.013760,14.97563100,.00002945,97.6830,88.1900,296.3949,63.7243,0,U,63264,999,7289,.96507585E-4,.1069E-4,0
LEMUR-2-UNTITLED-SC,2025-061A,2026-07-15T20:19:40.456992,15.13648466,.0019298,97.5654,172.0058,160.8571,199.3390,0,U,63351,999,7192,.84642E-4,.1461E-4,0
LEMUR-2-ESPERANZA,2025-061B,2026-07-15T19:44:05.542368,15.13754802,.001887,97.5664,172.0815,160.2118,199.9850,0,U,63352,999,7192,.10114E-3,.1764E-4,0
LEMUR-2-KREMPEL-BRO2,2025-061C,2026-07-15T20:11:09.386304,15.14181033,.0020052,97.5706,172.6700,153.1145,207.1130,0,U,63353,999,7194,.92378E-4,.1626E-4,0
LEMUR-2-THERMORAPTOR,2025-061D,2026-07-15T16:32:47.895936,15.14263696,.0019773,97.5712,172.6004,152.4587,207.7696,0,U,63354,999,7192,.11939E-3,.2125E-4,0
LEMUR-2-NEUROSPICY,2025-061E,2026-07-15T18:59:08.257920,15.14383040,.0017567,97.5639,172.3056,154.9997,205.2089,0,U,63355,999,7194,.97833E-4,.1734E-4,0
LEMUR-2-TILLINFINITY,2025-061F,2026-07-15T19:34:02.903232,15.14967056,.0019131,97.5625,172.6403,143.8271,216.4259,0,U,63356,999,7197,.12053E-3,.219E-4,0
LEMUR-2-KREMPEL-BRO1,2025-061G,2026-07-15T19:01:06.745152,15.14774193,.0019743,97.5626,172.5255,145.3068,214.9456,0,U,63357,999,7196,.98754E-4,.1772E-4,0
LEMUR-2-LANGER2SPACE,2025-061H,2026-07-15T21:22:41.610432,15.14467754,.0017462,97.5633,172.4259,152.9152,207.2994,0,U,63358,999,7196,.11277E-3,.2014E-4,0
LEMUR-2-BALTO,2025-052BH,2026-07-15T12:47:48.671808,15.00366255,.00051076,97.6928,89.8234,326.1448,33.9449,0,U,63395,999,7301,.21448911E-3,.2634E-4,0
LEMUR-2-KRISH,2025-135AK,2026-07-15T19:53:49.892352,14.96451015,.000128,97.7774,311.5152,96.4865,263.6502,0,U,64561,999,5820,.1614E-3,.1773E-4,0
LEMUR-2-HUBBLE-4,2025-135AP,2026-07-15T19:27:57.666240,14.93687040,.0002718,97.7720,310.3858,160.4737,199.6587,0,U,64565,999,5814,.81173E-4,.802E-5,0
LEMUR-2-SEJONG-2,2025-135BL,2026-07-15T20:23:50.456256,14.96914587,.0004004,97.7708,311.6812,215.6943,144.4012,0,U,64586,999,5823,.18863E-3,.2107E-4,0
LEMUR-2-HUBBLE-5,2025-135BT,2026-07-15T13:14:38.686560,14.94214435,.00043365,97.7741,310.7988,233.7942,126.2877,0,U,64840,999,5814,.67185876E-4,.663E-5,0
LEMUR-2-KARENDARRELL,2025-135BU,2026-07-15T19:07:08.896800,15.00505264,.0012499,97.7719,312.9676,102.9205,257.3415,0,U,64841,999,5830,.34587E-3,.4305E-4,0
LEMUR-2-LUCILLE-ROSE,2025-135BV,2026-07-15T18:28:55.584192,15.00493199,.0014976,97.7711,312.9763,187.3030,172.7977,0,U,65403,999,5292,.28528E-3,.354E-4,0
LEMUR-2-AFFIE-WAUWIE,2025-248C,2026-07-15T08:51:52.657344,15.28256430,.00087669,45.3887,322.1687,251.4181,108.5756,0,U,66295,999,3890,.46577019E-3,.12792E-3,0
OTTER SDM,2025-276N,2026-07-15T03:54:58.180896,15.20056680,.00042957,97.4206,269.1787,254.0411,106.0351,0,U,66678,999,3466,.16803421E-3,.3557E-4,0
LEMUR-2-STAS-GORBUK,2025-276W,2026-07-15T04:25:49.159200,15.19658337,.00036139,97.4240,269.2517,248.2139,111.8711,0,U,66686,999,3466,.13639192E-3,.2841E-4,0
LEMUR-2-TEODOR,2025-276DG,2026-07-15T17:30:35.243712,15.21341179,.0002204,97.4144,270.0602,87.3705,272.7783,0,U,66768,999,3478,.14257E-3,.3124E-4,0
LEMUR-2-LAILA,2025-276DQ,2026-07-15T04:09:23.257440,15.21563113,.00029245,97.4169,269.6508,94.5398,265.6172,0,U,66776,999,3470,.13678203E-3,.3014E-4,0
LEMUR-2-CELIJO-SB-PK,2025-276DW,2026-07-15T04:26:13.736544,15.00282855,.00070307,97.5197,266.0383,64.1114,296.0834,0,U,66781,999,2682,.21422816E-3,.2627E-4,0
LEMUR-2-FINNIAN,2025-276DX,2026-07-15T03:43:26.139360,15.00617476,.0007355,97.5350,266.2766,0.2021,359.9204,0,U,66782,999,2419,.12854E-3,.1567E-4,0
